{
  "ETXEA CAPITAL": {
    "address": "40 Cité des Fleurs",
    "city": "Paris\nFrance\nSuivez-nousEtxea CapitalADNHistoireEquipeGouvernanceEtxea Nova LifeEngagementActualitésAccès rapidesPolitique de rémunérationTraitement des réclamationsGestion des conflits d",
    "postal_code": "75017"
  },
  "JEITO CAPITAL": {
    "address": "33 rue Lafayette",
    "city": "ParisAdresse électronique",
    "postal_code": "75009"
  },
  "INCO VENTURES": {},
  "MANDARINE GESTION": {},
  "FOREST INVEST": {
    "address": "",
    "city": "Besan",
    "postal_code": "25000"
  },
  "RGREEN INVEST SAS": {
    "address": "51 rue de Chaillot",
    "city": "Paris",
    "postal_code": "75016"
  },
  "IRIS CAPITAL MANAGEMENT": {
    "address": "62 Rue Pierre Charron75008 ParisBERLINPotsdamer PlatzKemperplatz1 10785 BerlinMUNICHLeopoldstraÃe 8-10",
    "city": "MunichCONTACTÂ USMEDIAÂ REQUESTKEEPÂ UPÂ WITHÂ IRISJOBSLEGAL AND PRIVACY â",
    "postal_code": "80802"
  },
  "idiCo": {
    "address": "23-25 avenue Franklin Delano Roosevelt –",
    "city": "Paris",
    "postal_code": "75008"
  },
  "Parametric": {
    "address": "61 rue de Monceau",
    "city": "Paris",
    "postal_code": "75008"
  },
  "TRUSTEAM FINANCE": {
    "address": "",
    "city": "Paris",
    "postal_code": "75008"
  },
  "PHITRUST IMPACT INVESTORS": {
    "address": "7 rue d’Anjou",
    "city": "Paris\t\t\t\t\t\n\n\n\n\n\n\n\n\n\n\n\n\n\n         \n\n\n\nTél",
    "postal_code": "75008"
  },
  "PIQUEMAL HOUGHTON INVESTMENTS": {},
  "CDC CROISSANCE": {
    "address": "209 rue de l'Université",
    "city": "Paris\n \nAgrément AMF",
    "postal_code": "75007"
  },
  "MY SHARE COMPANY": {
    "address": "121 avenue Malakoff -",
    "city": "Paris\nE-mail",
    "postal_code": "75116"
  },
  "ALTAROC PARTNERS SAS": {
    "address": "61 rue des Belles Feuilles â",
    "city": "Paris",
    "postal_code": "75116"
  },
  "MESSIEURS HOTTINGUER ET CIE - GESTION PRIVÉE": {
    "address": "",
    "city": "Paris",
    "postal_code": "75009"
  },
  "RICHELIEU INVEST": {
    "address": "2 rue Kellermann",
    "city": "ROUBAIX",
    "postal_code": "59100"
  },
  "LE LUXE FRANCAIS": {},
  "DÔM FINANCE": {
    "address": "39 rue Mstislav Rostropovitch",
    "city": "ParisRCS",
    "postal_code": "75017"
  },
  "1 2 3 INVESTMENT MANAGERS": {
    "address": "94 rue de la Victoire",
    "city": "PARISSoci",
    "postal_code": "75009"
  },
  "JANNGO CAPITAL PARTNERS": {
    "address": "2025 | Agrément AMF GP-200",
    "city": "du",
    "postal_code": "00042"
  },
  "RB CAPITAL": {
    "address": "16 rue des Capucines",
    "city": "Paris\nTél",
    "postal_code": "75002"
  },
  "CINECAPITAL": {},
  "COLVILLE CAPITAL PARTNERS FRANCE": {
    "address": "71 boulevard Raspail",
    "city": "ParisCopyright",
    "postal_code": "75006"
  },
  "IRDI CAPITAL INVESTISSEMENT": {
    "address": "18 place Dominique Martin Dupuy – CS 18008",
    "city": "Toulouse cedex",
    "postal_code": "31080"
  },
  "VEGA INVESTMENT SOLUTIONS": {
    "address": "43 Av. Pierre Mendès-France",
    "city": "Paris\nTéléphone",
    "postal_code": "75013"
  },
  "Atlantic Vantage Point Capital": {
    "address": "2025InsightsKey takeaways from AVP Day 2",
    "city": "October",
    "postal_code": "02517"
  },
  "FUTURE POSITIVE CAPITAL": {},
  "PRUDENTIA CAPITAL": {
    "address": "17 rue Lamennais",
    "city": "Paris\nFrance\nOuvrir la carte\n\n\nNewsletter\nVeuillez saisir votre adresse électronique ci-dessous si vous souhaitez recevoir nos prochains communiqués de presse",
    "postal_code": "75008"
  },
  "CREDIT MUTUEL IMPACT": {},
  "MATIGNON FINANCES": {
    "address": "45 Avenue Kléber",
    "city": "ParisTél",
    "postal_code": "75016"
  },
  "RE-SOURCES CAPITAL": {
    "address": "137 avenue de la République",
    "city": "La Madeleine\ncontact",
    "postal_code": "59110"
  },
  "PENINSULAR CAPITAL MANAGEMENT": {
    "address": "139 boulevard Haussmann",
    "city": "Paris\n\n\n\n\n\n\nVoir toutes les actualités\n\n\n\n\n\n\n\n\nDécouvrir le portefeuille \n\n\n\n\n\n\n\n\n\n\n\n\n\n\nA propos\n\n\nPortefeuille\n\n\nActualités\n\n\nDéveloppement Durable\n\n\nContact",
    "postal_code": "75008"
  },
  "ZENITH AM": {
    "address": "13 rue Alphonse de Neuville",
    "city": "Paris    Nous contacter Nous écrire Nous rejoindre       Mentions légales   Cookies et politique de protection des données  Réclamations",
    "postal_code": "75017"
  },
  "FLEXAM INVEST ASSET MANAGEMENT": {
    "address": "6 rue de Berri",
    "city": "Paris\n\n\n\n\n\n\ncontact",
    "postal_code": "75008"
  },
  "FASTEA CAPITAL": {
    "address": "19 rue de la rosière d’artois",
    "city": "Nantes",
    "postal_code": "44100"
  },
  "MOBILIS GESTION": {
    "address": "64 boulevard de Cambrai –",
    "city": "Roubaix",
    "postal_code": "59100"
  },
  "EVEN FO": {
    "address": "15000020 – ORIAS N°160",
    "city": "Family Office Paris",
    "postal_code": "01989"
  },
  "ERASMUS GESTION": {
    "address": "39 rue Marbeuf –",
    "city": "Paris",
    "postal_code": "75008"
  },
  "SAGARD SAS": {
    "address": "",
    "city": "Paris",
    "postal_code": "75008"
  },
  "MANSARTIS GESTION": {
    "address": "8 place VendÃ´me",
    "city": "ParisTelephone",
    "postal_code": "75001"
  },
  "A PLUS FINANCE SAS": {},
  "Flandrin Capital": {},
  "INDIGO CAPITAL": {
    "address": "",
    "city": "Paris",
    "postal_code": "75008"
  },
  "AG2R LA MONDIALE GESTION D'ACTIFS": {},
  "AUDACIA": {
    "address": "",
    "city": "Paris",
    "postal_code": "75010"
  },
  "GROUPAMA GAN REIM": {
    "address": "136 rue des Trois Fontanot",
    "city": "Nanterre",
    "postal_code": "92000"
  },
  "TwentyTwo Investment Management": {},
  "AQUA ASSET MANAGEMENT": {},
  "ODDO BHF ASSET MANAGEMENT SAS": {
    "address": "12 Bd de la Madeleine",
    "city": "Paris Cedex",
    "postal_code": "75440"
  },
  "SEVENTURE PARTNERS": {
    "address": "7 Rue de Monttessuy",
    "city": "Paris Cedex",
    "postal_code": "75340"
  },
  "CONQUEST ADVISORS FRANCE": {
    "address": "",
    "city": "Paris",
    "postal_code": "75008"
  },
  "CAPITAL CROISSANCE SAS": {
    "address": "19A rue du Rocher",
    "city": "Paris",
    "postal_code": "75008"
  },
  "KYOSEIL ASSET MANAGEMENT": {},
  "OFI INVEST REAL ESTATE (SGP)": {
    "address": "11 252 122 euros • APE 6630Z • FR 878245",
    "city": "Crédit photos",
    "postal_code": "39407"
  },
  "KEREN FINANCE": {},
  "MONETA ASSET MANAGEMENT": {
    "address": "36 rue Marbeuf",
    "city": "Paris",
    "postal_code": "75008"
  },
  "OUEST CROISSANCE GESTION": {
    "address": "1 rue Marie Anne du Boccage",
    "city": "NANTES\nDirecteur de la publication",
    "postal_code": "44000"
  },
  "BORDIER & CIE (FRANCE) SA": {
    "address": "",
    "city": "Paris",
    "postal_code": "75008"
  },
  "ADVENIS  REAL ESTATE INVESTMENT MANAGEMENT": {
    "address": "52 rue de Bassano",
    "city": "Paris",
    "postal_code": "75008"
  },
  "AALTO REIM": {},
  "AMIRAL GESTION": {},
  "LA FINANCIERE TIEPOLO": {
    "address": "48 avenue Victor Hugo",
    "city": "Paris\n                    \n\n\nLes pages du site contiennent des informations sur différents produits ou services financiers soumis à la réglementation fran",
    "postal_code": "75116"
  },
  "AXA REIM SGP": {},
  "SYQUANT CAPITAL": {
    "address": "25 Avenue Kléber |",
    "city": "ParisTél",
    "postal_code": "75116"
  },
  "HOMA CAPITAL": {
    "address": "1 Boulevard Pasteur",
    "city": "Paris",
    "postal_code": "75015"
  },
  "LATOUR CAPITAL MANAGEMENT SAS": {
    "address": "104 Avenue des Champs Elysées",
    "city": "Paris",
    "postal_code": "75008"
  },
  "DAPHNI": {
    "address": "87 rue RÃ©aumur",
    "city": "Paris",
    "postal_code": "75002"
  },
  "Cervinvest Capital": {
    "address": "10 avenue de Messine",
    "city": "ParisFranceEmail",
    "postal_code": "75008"
  },
  "HSBC REIM ( FRANCE )": {},
  "EQUIGEST": {
    "address": "87 avenue du Dr Arnold Netter",
    "city": "ParisTél",
    "postal_code": "75012"
  },
  "EURAZEO INFRASTRUCTURE PARTNERS": {
    "address": "66 rue Pierre Charron –",
    "city": "Paris",
    "postal_code": "75008"
  },
  "MONTAIGNE CAPITAL": {
    "address": "33 avenue de l'Opéra",
    "city": "Paris\nTel",
    "postal_code": "75002"
  },
  "EQUISTONE PARTNERS FRANCE SAS": {
    "address": "45 avenue Kléber",
    "city": "Paris\nFrance\n\nTel",
    "postal_code": "75116"
  },
  "TILT CAPITAL PARTNERS": {
    "address": "5 rue Feydeau",
    "city": "PARIS",
    "postal_code": "75002"
  },
  "GINJER AM": {
    "address": "9 rue de Téhéran",
    "city": "Paris ou par mail à ginjer-jardin",
    "postal_code": "75008"
  },
  "FINORPA GESTION": {
    "address": "23 rue du 11 Novembre -",
    "city": "LENS\t\t\t\t\t\n\n\n\n\n\n\n\n\n\n\n\n\n\n\nFONDS RÉGIONAL DE GARANTIE \n\n\n\nGarantie \n\n\n\n\n\n\t\t\t\t\t\t\t\t\tLe Fonds Régional de Garantie Hauts de France",
    "postal_code": "62300"
  },
  "LIFENTO": {},
  "NIXEN PARTNERS": {
    "address": "38 bis rue d'Artois",
    "city": "Paris",
    "postal_code": "75008"
  },
  "CAP WEST": {
    "address": "",
    "city": "Article",
    "postal_code": "48680"
  },
  "ONERAGTIME SAS": {},
  "Noteus Partners": {
    "address": "",
    "city": "Berlin",
    "postal_code": "10119"
  },
  "BLACKFIN CAPITAL PARTNERS": {},
  "Ouest Rebond": {
    "address": "6 Rue du Pré Botté",
    "city": "Rennes\n\n\ncontact",
    "postal_code": "35000"
  },
  "TRUFFLE CAPITAL S.A.S": {
    "address": "62 Rue de Miromesnil",
    "city": "Paris",
    "postal_code": "75008"
  },
  "CARTESIA": {
    "address": "26 rue Danielle Casanova",
    "city": "Paris",
    "postal_code": "75002"
  },
  "CEREA PARTNERS": {
    "address": "",
    "city": "Neuilly-sur-",
    "postal_code": "92200"
  },
  "AMUNDI IMMOBILIER": {},
  "MYRIA ASSET MANAGEMENT": {},
  "VERMEER CAPITAL PARTNERS": {
    "address": "",
    "city": "Paris",
    "postal_code": "75008"
  },
  "ALBAREST PARTNERS": {
    "address": "15 quai Jean Moulin",
    "city": "Lyon\n\n\n\n \nParking LPA",
    "postal_code": "69002"
  },
  "ACA - ASSET MANAGEMENT COMPANY & ASSOCIES": {},
  "STABIHO INVESTMENT PARTNERS": {
    "address": "73 rue Vaugirard",
    "city": "Paris",
    "postal_code": "75006"
  },
  "TALENCE PATRIVAL": {
    "address": "",
    "city": "Wasquehal",
    "postal_code": "59290"
  },
  "PHILIPPE HOTTINGUER GESTION - Groupe Philippe HOTTINGUER": {},
  "OPALE CAPITAL": {
    "address": "",
    "city": "Paris",
    "postal_code": "75082"
  },
  "CREDIT MUTUEL ASSET MANAGEMENT": {},
  "PLATINIUM GESTION": {
    "address": "6 rue Christophe Colomb",
    "city": "Paris",
    "postal_code": "75008"
  },
  "GESTION 21": {},
  "EDOUARD 7 GESTION PRIVEE": {}
}